NORAD_CAT_ID,OBJECT_NAME,OBJECT_TYPE,EPOCH,MEAN_MOTION,ECCENTRICITY,INCLINATION,RA_OF_ASC_NODE,ARG_OF_PERICENTER,MEAN_ANOMALY,BSTAR,MEAN_MOTION_DOT,MEAN_MOTION_DDOT,TLE_LINE0,TLE_LINE1,TLE_LINE2,SEMIMAJOR_AXIS,PERIOD,APOGEE,PERIGEE,DECAYED
54209.0,STARLINK-5259,PAYLOAD,2023-10-20 07:23:00,15.08836275,0.0001831,53.2168,295.5654,93.7327,266.3875,4.3557e-05,4.05e-06,0.0,0 STARLINK-5259,1 54209U 22141BE  23293.30764891  .00000405  00000-0  43557-4 0  9994,2 54209  53.2168 295.5654 0001831  93.7327 266.3875 15.08836275 54828,6917.892,95.438,541.023,538.49,0.0
54209.0,STARLINK-5259,PAYLOAD,2023-10-21 07:13:48,15.08838946,0.0001912,53.218,291.1084,100.5003,259.6205,1.3823e-05,-6.8e-07,0.0,0 STARLINK-5259,1 54209U 22141BE  23294.30125071 -.00000068  00000-0  13823-4 0  9995,2 54209  53.2180 291.1084 0001912 100.5003 259.6205 15.08838946 54749,6917.884,95.438,541.071,538.426,0.0
54209.0,STARLINK-5259,PAYLOAD,2023-10-21 16:46:06,15.08842647,0.0001875,53.2172,289.3222,88.3735,271.7471,7.8343e-05,9.59e-06,0.0,0 STARLINK-5259,1 54209U 22141BE  23294.69868869  .00000959  00000-0  78343-4 0  9992,2 54209  53.2172 289.3222 0001875  88.3735 271.7471 15.08842647 55032,6917.872,95.437,541.034,538.44,0.0
54209.0,STARLINK-5259,PAYLOAD,2023-10-22 08:39:57,15.0885664,0.0001731,53.2169,286.3493,95.2483,264.8707,0.00039125,5.947e-05,0.0,0 STARLINK-5259,1 54209U 22141BE  23295.36108167  .00005947  00000-0  39125-3 0  9991,2 54209  53.2169 286.3493 0001731  95.2483 264.8707 15.08856640 55137,6917.83,95.437,540.892,538.497,0.0
54209.0,STARLINK-5259,PAYLOAD,2023-10-22 16:36:53,15.08844247,0.0002314,53.2161,284.8619,83.8151,276.3105,0.00013727,1.897e-05,0.0,0 STARLINK-5259,1 54209U 22141BE  23295.69228770  .00001897  00000-0  13727-3 0  9990,2 54209  53.2161 284.8619 0002314  83.8151 276.3105 15.08844247 55180,6917.867,95.437,541.333,538.132,0.0
54209.0,STARLINK-5259,PAYLOAD,2023-10-23 05:19:59,15.08830978,0.0001513,53.2163,282.4828,88.4209,271.6957,-0.00013565,-2.446e-05,0.0,0 STARLINK-5259,1 54209U 22141BE  23296.22221182 -.00002446  00000-0 -13565-3 0  9993,2 54209  53.2163 282.4828 0001513  88.4209 271.6957 15.08830978 55261,6917.908,95.438,540.82,538.726,0.0
54209.0,STARLINK-5259,PAYLOAD,2023-10-23 06:55:22,15.08834883,0.0001684,53.2162,282.1861,87.4675,272.651,-7.0777e-05,-1.414e-05,0.0,0 STARLINK-5259,1 54209U 22141BE  23296.28845011 -.00001414  00000-0 -70777-4 0  9995,2 54209  53.2162 282.1861 0001684  87.4675 272.6510 15.08834883 55040,6917.896,95.438,540.926,538.596,0.0
54209.0,STARLINK-5259,PAYLOAD,2023-10-24 05:10:46,15.08844478,0.0001659,53.2154,278.0217,86.3994,273.7188,0.00061997,9.594e-05,0.0,0 STARLINK-5259,1 54209U 22141BE  23297.21581247  .00009594  00000-0  61997-3 0  9995,2 54209  53.2154 278.0217 0001659  86.3994 273.7188 15.08844478 55419,6917.867,95.437,540.879,538.584,0.0
54209.0,STARLINK-5259,PAYLOAD,2023-10-24 08:21:32,15.08849522,0.0001664,53.2153,277.4267,85.7197,274.3986,0.00078845,0.00012286,0.0,0 STARLINK-5259,1 54209U 22141BE  23297.34829196  .00012286  00000-0  78845-3 0  9999,2 54209  53.2153 277.4267 0001664  85.7197 274.3986 15.08849522 55205,6917.851,95.437,540.867,538.565,0.0
54209.0,STARLINK-5259,PAYLOAD,2023-10-25 08:12:19,15.08847862,0.000197,53.2176,272.9616,103.7116,256.4096,0.00029929,4.479e-05,0.0,0 STARLINK-5259,1 54209U 22141BE  23298.34188967  .00004479  00000-0  29929-3 0  9998,2 54209  53.2176 272.9616 0001970 103.7116 256.4096 15.08847862 55589,6917.856,95.437,541.084,538.359,0.0
54209.0,STARLINK-5259,PAYLOAD,2023-10-26 03:16:57,15.08842003,0.000198,53.2174,269.3923,106.9018,253.2191,8.9143e-05,1.131e-05,0.0,0 STARLINK-5259,1 54209U 22141BE  23299.13677156  .00001131  00000-0  89143-4 0  9996,2 54209  53.2174 269.3923 0001980 106.9018 253.2191 15.08842003 55702,6917.874,95.437,541.109,538.37,0.0
54209.0,STARLINK-5259,PAYLOAD,2023-10-26 08:03:06,15.08846761,0.0001709,53.2162,268.5038,91.3967,268.7221,0.00010857,1.441e-05,0.0,0 STARLINK-5259,1 54209U 22141BE  23299.33548954  .00001441  00000-0  10857-3 0  9990,2 54209  53.2162 268.5038 0001709  91.3967 268.7221 15.08846761 55504,6917.86,95.437,540.907,538.542,0.0
54209.0,STARLINK-5259,PAYLOAD,2023-10-27 04:43:06,15.08858147,0.0001611,53.2162,264.637,94.3568,265.7608,0.00031526,4.735e-05,0.0,0 STARLINK-5259,1 54209U 22141BE  23300.19660341  .00004735  00000-0  31526-3 0  9997,2 54209  53.2162 264.6370 0001611  94.3568 265.7608 15.08858147 55868,6917.825,95.436,540.804,538.575,0.0
54209.0,STARLINK-5259,PAYLOAD,2023-10-27 07:53:52,15.08858932,0.0001594,53.2162,264.0436,93.9613,266.1561,0.00028471,4.248e-05,0.0,0 STARLINK-5259,1 54209U 22141BE  23300.32908156  .00004248  00000-0  28471-3 0  9995,2 54209  53.2162 264.0436 0001594  93.9613 266.1561 15.08858932 55653,6917.823,95.436,540.79,538.585,0.0
54209.0,STARLINK-5259,PAYLOAD,2023-10-27 14:15:25,15.08839111,0.000189,53.216,262.8529,92.617,267.5038,1.4342e-05,-6e-07,0.0,0 STARLINK-5259,1 54209U 22141BE  23300.59405091 -.00000060  00000-0  14342-4 0  9996,2 54209  53.2160 262.8529 0001890  92.6170 267.5038 15.08839111 55925,6917.883,95.438,541.056,538.441,0.0
54209.0,STARLINK-5259,PAYLOAD,2023-10-28 14:06:13,15.08839027,0.0001637,53.2165,258.3937,99.85,260.2677,2.3708e-05,8.9e-07,0.0,0 STARLINK-5259,1 54209U 22141BE  23301.58765137  .00000089  00000-0  23708-4 0  9992,2 54209  53.2165 258.3937 0001637  99.8500 260.2677 15.08839027 55844,6917.883,95.438,540.881,538.616,0.0
54209.0,STARLINK-5259,PAYLOAD,2023-10-29 04:24:41,15.08848288,0.0001562,53.2163,255.718,102.4926,257.6241,0.00019936,2.887e-05,0.0,0 STARLINK-5259,1 54209U 22141BE  23302.18381055  .00002887  00000-0  19936-3 0  9997,2 54209  53.2163 255.7180 0001562 102.4926 257.6241 15.08848288 56165,6917.855,95.437,540.801,538.639,0.0
54209.0,STARLINK-5259,PAYLOAD,2023-10-29 13:57:00,15.08838649,0.0001996,53.2171,253.9333,88.7779,271.3442,9.8016e-05,1.272e-05,0.0,0 STARLINK-5259,1 54209U 22141BE  23302.58125678  .00001272  00000-0  98016-4 0  9992,2 54209  53.2171 253.9333 0001996  88.7779 271.3442 15.08838649 55993,6917.885,95.438,541.13,538.369,0.0
54209.0,STARLINK-5259,PAYLOAD,2023-10-30 05:50:52,15.08839026,0.0001667,53.2175,250.9598,90.9772,269.1412,0.00014508,2.022e-05,0.0,0 STARLINK-5259,1 54209U 22141BE  23303.24365844  .00002022  00000-0  14508-3 0  9994,2 54209  53.2175 250.9598 0001667  90.9772 269.1412 15.08839026 56094,6917.883,95.438,540.902,538.595,0.0
54209.0,STARLINK-5259,PAYLOAD,2023-10-31 04:06:16,15.08841582,0.0001605,53.2168,246.7979,95.7408,264.3768,0.0001532,2.151e-05,0.0,0 STARLINK-5259,1 54209U 22141BE  23304.17102146  .00002151  00000-0  15320-3 0  9997,2 54209  53.2168 246.7979 0001605  95.7408 264.3768 15.08841582 56465,6917.876,95.437,540.851,538.63,0.0
54209.0,STARLINK-5259,PAYLOAD,2023-10-31 13:38:35,15.08837503,0.0001409,53.2163,245.0122,91.4054,268.71,0.00011073,1.475e-05,0.0,0 STARLINK-5259,1 54209U 22141BE  23304.56846425  .00001475  00000-0  11073-3 0  9994,2 54209  53.2163 245.0122 0001409  91.4054 268.7100 15.08837503 56291,6917.888,95.438,540.728,538.778,0.0
54209.0,STARLINK-5259,PAYLOAD,2023-11-01 13:29:22,15.08846038,0.000181,53.2183,240.552,89.9962,270.1238,0.00015434,2.169e-05,0.0,0 STARLINK-5259,1 54209U 22141BE  23305.56206070  .00002169  00000-0  15434-3 0  9997,2 54209  53.2183 240.5520 0001810  89.9962 270.1238 15.08846038 56440,6917.862,95.437,540.979,538.475,0.0
54209.0,STARLINK-5259,PAYLOAD,2023-11-01 19:50:54,15.088488,0.0001734,53.2174,239.3636,89.5899,270.5292,0.00012104,1.639e-05,0.0,0 STARLINK-5259,1 54209U 22141BE  23305.82702009  .00001639  00000-0  12104-3 0  9991,2 54209  53.2174 239.3636 0001734  89.5899 270.5292 15.08848800 56717,6917.853,95.437,540.918,538.519,0.0
54209.0,STARLINK-5259,PAYLOAD,2023-11-01 23:01:40,15.08849263,0.0001501,53.2169,238.7698,89.0223,271.0941,0.00010558,1.393e-05,0.0,0 STARLINK-5259,1 54209U 22141BE  23305.95949917  .00001393  00000-0  10558-3 0  9994,2 54209  53.2169 238.7698 0001501  89.0223 271.0941 15.08849263 56508,6917.852,95.437,540.755,538.679,0.0
54209.0,STARLINK-5259,PAYLOAD,2023-11-02 02:12:26,15.08853684,0.0001345,53.2174,238.1737,92.8563,267.2583,0.00019017,2.741e-05,0.0,0 STARLINK-5259,1 54209U 22141BE  23306.09197593  .00002741  00000-0  19017-3 0  9992,2 54209  53.2174 238.1737 0001345  92.8563 267.2583 15.08853684 56520,6917.839,95.437,540.634,538.773,0.0
54209.0,STARLINK-5259,PAYLOAD,2023-11-02 19:41:41,15.08843388,0.0001435,53.2161,234.9022,91.0319,269.0837,9.4395e-05,1.215e-05,0.0,0 STARLINK-5259,1 54209U 22141BE  23306.82061998  .00001215  00000-0  94395-4 0  9990,2 54209  53.2161 234.9022 0001435  91.0319 269.0837 15.08843388 56866,6917.87,95.437,540.728,538.742,0.0
54209.0,STARLINK-5259,PAYLOAD,2023-11-03 05:14:00,15.08850461,0.0001462,53.216,233.1186,84.2267,275.8892,0.00016972,2.415e-05,0.0,0 STARLINK-5259,1 54209U 22141BE  23307.21805615  .00002415  00000-0  16972-3 0  9993,2 54209  53.2160 233.1186 0001462  84.2267 275.8892 15.08850461 56690,6917.848,95.437,540.725,538.702,0.0
54209.0,STARLINK-5259,PAYLOAD,2023-11-03 19:32:28,15.08833501,0.0001173,53.2161,230.4428,86.9574,273.1552,-8.2489e-05,-1.6e-05,0.0,0 STARLINK-5259,1 54209U 22141BE  23307.81422271 -.00001600  00000-0 -82489-4 0  9996,2 54209  53.2161 230.4428 0001173  86.9574 273.1552 15.08833501 57016,6917.9,95.438,540.577,538.954,0.0
54209.0,STARLINK-5259,PAYLOAD,2023-11-03 22:43:14,15.0884333,0.0001674,53.2164,229.8475,105.7067,254.411,9.0166e-05,1.147e-05,0.0,0 STARLINK-5259,1 54209U 22141BE  23307.94669953  .00001147  00000-0  90166-4 0  9995,2 54209  53.2164 229.8475 0001674 105.7067 254.4110 15.08843330 56805,6917.87,95.437,540.893,538.577,0.0
54209.0,STARLINK-5259,PAYLOAD,2023-11-04 01:54:00,15.08847758,0.0001606,53.2165,229.252,100.9883,259.129,0.00017632,2.52e-05,0.0,0 STARLINK-5259,1 54209U 22141BE  23308.07917657  .00002520  00000-0  17632-3 0  9999,2 54209  53.2165 229.2520 0001606 100.9883 259.1290 15.08847758 57056,6917.857,95.437,540.833,538.611,0.0
